ONEWEB-0114
1 47262U 20100E   24155.23229101  .00000031  00000+0  50885-4 0  9994
2 47262  87.8925 138.7922 0002058  71.8384 288.2968 13.12493216166930
ONEWEB-0117
1 47263U 20100F   24155.22428657 -.00000230  00000+0 -67512-3 0  9998
2 47263  87.8932 138.7684 0002079  87.2535 272.8832 13.12511847166947
ONEWEB-0120
1 47266U 20100J   24155.23085398 -.00000024  00000+0 -10174-3 0  9996
2 47266  87.8932 138.7987 0002037  82.1230 278.0130 13.12500501167143
ONEWEB-0127
1 47273U 20100R   24154.47636577  .00000381  00000+0  10227-2 0  9992
2 47273  87.8930 138.9481 0002092  83.6956 276.4410 13.12483090167047
ONEWEB-0129
1 47275U 20100T   24155.46902958  .00000475  00000+0  12832-2 0  9991
2 47275  87.8931 138.7214 0002629  45.7730 314.3614 13.12477913167121
ONEWEB-0133
1 47279U 20100X   24155.23389837  .00000164  00000+0  42074-3 0  9992
2 47279  87.8926 138.7918 0002186  88.8911 271.2468 13.12489904167151
ONEWEB-0137
1 47283U 20100AB  24155.37995255 -.00000140  00000+0 -42431-3 0  9992
2 47283  87.8925 138.7592 0001991  82.9419 277.1936 13.12503051167003
ONEWEB-0141
1 47287U 20100AF  24154.93497880  .00000407  00000+0  11227-2 0  9990
2 47287  87.8928 138.8442 0001859  87.3055 272.8285 13.10832766167053
ONEWEB-0143
1 47289U 20100AH  24154.48117416  .00000471  00000+0  12722-2 0  9998
2 47289  87.8928 138.9382 0002039  87.3451 272.7911 13.12471673166962
ONEWEB-0147
1 47293U 20100AM  24155.22591123 -.00000045  00000+0 -15999-3 0  9996
2 47293  87.8925 138.7756 0002358  82.9284 277.2113 13.12506815166989
ONEWEB-0296
1 49085U 21075L   24155.46421833  .00000128  00000+0  31943-3 0  9992
2 49085  87.8926 138.7506 0001826  63.8487 296.2829 13.12487888138012
ONEWEB-0301
1 49090U 21075R   24155.47063541  .00000498  00000+0  13485-2 0  9997
2 49090  87.8926 138.7493 0002100  95.1297 265.0071 13.12475641138002
ONEWEB-0302
1 49091U 21075S   24155.22908923 -.00000018  00000+0 -84595-4 0  9995
2 49091  87.8927 138.7955 0002025  78.8829 281.2527 13.12498737137963
ONEWEB-0310
1 49096U 21075X   24155.23711660  .00000255  00000+0  67352-3 0  9993
2 49096  87.8934 138.7998 0002122  82.3351 277.8019 13.12485178138605
ONEWEB-0327
1 49196U 21083L   24154.62845750  .00000082  00000+0  17411-3 0  9992
2 49196  87.9133 123.6912 0001675  86.9265 273.2058 13.18687240131890
ONEWEB-0401
1 50481U 21132N   24155.15880406  .00000073  00000+0  15148-3 0  9997
2 50481  87.9127 123.5680 0002130  92.9441 267.1935 13.18684648124834
ONEWEB-0419
1 50494U 21132AB  24155.46388917  .00000050  00000+0  94514-4 0  9995
2 50494  87.9127 123.5291 0002014  75.0135 285.1219 13.18684940124851
ONEWEB-0424
1 50497U 21132AE  24155.45915044  .00000033  00000+0  49837-4 0  9993
2 50497  87.9132 123.5102 0002214  70.4506 289.6865 13.18686487124904
ONEWEB-0432
1 50502U 21132AK  24155.16194912 -.00000289  00000+0 -76522-3 0  9996
2 50502  87.9129 123.5674 0002146  71.7876 288.3490 13.18685437124824
ONEWEB-0533
1 55141U 23004B   24154.54446551  .00000207  00000+0  54007-3 0  9992
2 55141  87.8935 138.8998 0002003  91.4743 268.6615 13.12497759 70387
